NORAD_CAT_ID,OBJECT_NAME,OBJECT_TYPE,EPOCH,MEAN_MOTION,ECCENTRICITY,INCLINATION,RA_OF_ASC_NODE,ARG_OF_PERICENTER,MEAN_ANOMALY,BSTAR,MEAN_MOTION_DOT,MEAN_MOTION_DDOT,TLE_LINE0,TLE_LINE1,TLE_LINE2,SEMIMAJOR_AXIS,PERIOD,APOGEE,PERIGEE,DECAYED
55775.0,STARLINK-5809,PAYLOAD,2024-02-11 21:22:47,14.98331056,0.0002885,70.0004,332.5487,270.6539,89.429,1.4979e-05,8.6e-07,0.0,0 STARLINK-5809,1 55775U 23028AL  24042.89082821  .00000086  00000-0  14979-4 0  9992,2 55775  70.0004 332.5487 0002885 270.6539  89.4290 14.98331056 53177,6950.19,96.107,574.06,570.049,0.0
55775.0,STARLINK-5809,PAYLOAD,2024-02-12 03:47:19,14.98337598,0.0002575,70.0009,331.8742,269.297,90.7894,0.0001079,1.195e-05,0.0,0 STARLINK-5809,1 55775U 23028AL  24043.15786071  .00001195  00000-0  10790-3 0  9998,2 55775  70.0009 331.8742 0002575 269.2970  90.7894 14.98337598 53214,6950.169,96.107,573.824,570.245,0.0
55775.0,STARLINK-5809,PAYLOAD,2024-02-12 05:23:26,14.98341069,0.0002533,70.0012,331.7067,269.0743,91.0126,0.00014649,1.656e-05,0.0,0 STARLINK-5809,1 55775U 23028AL  24043.22461715  .00001656  00000-0  14649-3 0  9990,2 55775  70.0012 331.7067 0002533 269.0743  91.0126 14.98341069 53228,6950.159,96.106,573.784,570.263,0.0
55775.0,STARLINK-5809,PAYLOAD,2024-02-12 19:48:40,14.98320962,0.0002014,70.0048,330.1948,266.8634,93.2295,9.8306e-05,1.08e-05,0.0,0 STARLINK-5809,1 55775U 23028AL  24043.82546931  .00001080  00000-0  98306-4 0  9994,2 55775  70.0048 330.1948 0002014 266.8634  93.2295 14.98320962 53316,6950.221,96.108,573.486,570.686,0.0
55775.0,STARLINK-5809,PAYLOAD,2024-02-12 23:00:56,14.98321774,0.0001987,70.0039,329.8611,255.9001,104.1938,5.2283e-05,5.31e-06,0.0,0 STARLINK-5809,1 55775U 23028AL  24043.95899097  .00000531  00000-0  52283-4 0  9996,2 55775  70.0039 329.8611 0001987 255.9001 104.1938 14.98321774 53333,6950.218,96.108,573.464,570.702,0.0
55775.0,STARLINK-5809,PAYLOAD,2024-02-13 11:50:01,14.98315278,0.0002163,70.0015,328.5094,275.7856,84.3056,0.00016678,1.897e-05,0.0,0 STARLINK-5809,1 55775U 23028AL  24044.49307486  .00001897  00000-0  16678-3 0  9995,2 55775  70.0015 328.5094 0002163 275.7856  84.3056 14.98315278 53414,6950.238,96.108,573.607,570.6,0.0
55775.0,STARLINK-5809,PAYLOAD,2024-02-13 19:50:41,14.98331617,0.0002418,70.0007,327.6672,267.0757,93.0126,-6.7447e-05,-8.98e-06,0.0,0 STARLINK-5809,1 55775U 23028AL  24044.82686926 -.00000898  00000-0 -67447-4 0  9994,2 55775  70.0007 327.6672 0002418 267.0757  93.0126 14.98331617 53469,6950.188,96.107,573.733,570.372,0.0
55775.0,STARLINK-5809,PAYLOAD,2024-02-13 21:26:49,14.98331513,0.0002422,70.0008,327.4988,268.0104,92.0778,-6.0573e-05,-8.16e-06,0.0,0 STARLINK-5809,1 55775U 23028AL  24044.89362907 -.00000816  00000-0 -60573-4 0  9994,2 55775  70.0008 327.4988 0002422 268.0104  92.0778 14.98331513 53478,6950.188,96.107,573.737,570.37,0.0
55775.0,STARLINK-5809,PAYLOAD,2024-02-14 11:52:01,14.98337247,0.0002312,70.0014,325.984,276.9948,83.0948,-0.00010189,-1.309e-05,0.0,0 STARLINK-5809,1 55775U 23028AL  24045.49446487 -.00001309  00000-0 -10189-3 0  9992,2 55775  70.0014 325.9840 0002312 276.9948  83.0948 14.98337247 53566,6950.17,96.107,573.642,570.429,0.0
55775.0,STARLINK-5809,PAYLOAD,2024-02-14 21:28:51,14.98300044,0.0002527,70.0017,324.975,272.6536,87.4334,0.0003653,4.265e-05,0.0,0 STARLINK-5809,1 55775U 23028AL  24045.89503481  .00004265  00000-0  36530-3 0  9994,2 55775  70.0017 324.9750 0002527 272.6536  87.4334 14.98300044 53621,6950.286,96.109,573.907,570.394,0.0
55775.0,STARLINK-5809,PAYLOAD,2024-02-15 03:53:22,14.98325171,0.0002479,70.0009,324.3022,262.9855,97.1022,1.4768e-05,8.3e-07,0.0,0 STARLINK-5809,1 55775U 23028AL  24046.16207095  .00000083  00000-0  14768-4 0  9991,2 55775  70.0009 324.3022 0002479 262.9855  97.1022 14.98325171 53664,6950.208,96.107,573.796,570.35,0.0
55775.0,STARLINK-5809,PAYLOAD,2024-02-15 19:54:43,14.98321838,0.0002676,70.0007,322.6177,270.1881,89.8972,-2.9265e-05,-4.42e-06,0.0,0 STARLINK-5809,1 55775U 23028AL  24046.82967580 -.00000442  00000-0 -29265-4 0  9995,2 55775  70.0007 322.6177 0002676 270.1881  89.8972 14.98321838 53762,6950.218,96.108,573.943,570.223,0.0
55775.0,STARLINK-5809,PAYLOAD,2024-02-16 03:55:23,14.98329811,0.0002601,70.0004,321.7743,266.5447,93.5414,2.5899e-06,-6.2e-07,0.0,0 STARLINK-5809,1 55775U 23028AL  24047.16347039 -.00000062  00000-0  25899-5 0  9991,2 55775  70.0004 321.7743 0002601 266.5447  93.5414 14.98329811 53811,6950.193,96.107,573.866,570.251,0.0
55775.0,STARLINK-5809,PAYLOAD,2024-02-16 11:56:04,14.98330359,0.0002613,70.0004,320.9332,269.7039,90.3821,-0.00010353,-1.328e-05,0.0,0 STARLINK-5809,1 55775U 23028AL  24047.49727286 -.00001328  00000-0 -10353-3 0  9997,2 55775  70.0004 320.9332 0002613 269.7039  90.3821 14.98330359 53862,6950.192,96.107,573.873,570.241,0.0
55775.0,STARLINK-5809,PAYLOAD,2024-02-16 21:32:52,14.98323207,0.0002563,70.0003,319.9229,268.9554,91.1311,5.2376e-05,5.32e-06,0.0,0 STARLINK-5809,1 55775U 23028AL  24047.89783421  .00000532  00000-0  52376-4 0  9990,2 55775  70.0003 319.9229 0002563 268.9554  91.1311 14.98323207 53925,6950.214,96.107,573.86,570.298,0.0
55775.0,STARLINK-5809,PAYLOAD,2024-02-17 03:57:24,14.98328029,0.0002698,70.0003,319.2504,270.2486,89.8364,7.3181e-05,7.8e-06,0.0,0 STARLINK-5809,1 55775U 23028AL  24048.16487119  .00000780  00000-0  73181-4 0  9998,2 55775  70.0003 319.2504 0002698 270.2486  89.8364 14.98328029 53966,6950.199,96.107,573.939,570.189,0.0
55775.0,STARLINK-5809,PAYLOAD,2024-02-17 21:34:53,14.98338797,0.0002506,70.0002,317.399,272.2329,87.8543,-0.00010378,-1.331e-05,0.0,0 STARLINK-5809,1 55775U 23028AL  24048.89922895 -.00001331  00000-0 -10378-3 0  9996,2 55775  70.0002 317.3990 0002506 272.2329  87.8543 14.98338797 54072,6950.166,96.106,573.772,570.289,0.0
55775.0,STARLINK-5809,PAYLOAD,2024-02-18 03:59:25,14.98331409,0.0002791,70.0003,316.7261,270.9469,89.137,0.00014237,1.606e-05,0.0,0 STARLINK-5809,1 55775U 23028AL  24049.16626687  .00001606  00000-0  14237-3 0  9998,2 55775  70.0003 316.7261 0002791 270.9469  89.1370 14.98331409 54114,6950.189,96.107,573.993,570.114,0.0
55775.0,STARLINK-5809,PAYLOAD,2024-02-18 21:36:54,14.98322486,0.0002648,70.0003,314.8751,269.2781,90.8075,0.00021534,2.477e-05,0.0,0 STARLINK-5809,1 55775U 23028AL  24049.90062901  .00002477  00000-0  21534-3 0  9998,2 55775  70.0003 314.8751 0002648 269.2781  90.8075 14.98322486 54224,6950.216,96.107,573.922,570.241,0.0
55775.0,STARLINK-5809,PAYLOAD,2024-02-19 04:01:25,14.98337342,0.0002672,70.0002,314.2018,271.4916,88.5937,9.8601e-05,1.084e-05,0.0,0 STARLINK-5809,1 55775U 23028AL  24050.16766108  .00001084  00000-0  98601-4 0  9991,2 55775  70.0002 314.2018 0002672 271.4916  88.5937 14.98337342 54267,6950.17,96.107,573.892,570.178,0.0
55775.0,STARLINK-5809,PAYLOAD,2024-02-19 10:25:57,14.98375349,0.000284,70.0025,313.5262,278.7983,81.2855,-0.00085876,-0.00010336,0.0,0 STARLINK-5809,1 55775U 23028AL  24050.43469689 -.00010336  00000-0 -85876-3 0  9996,2 55775  70.0025 313.5262 0002840 278.7983  81.2855 14.98375349 54309,6950.053,96.104,573.891,569.944,0.0
55775.0,STARLINK-5809,PAYLOAD,2024-02-19 20:02:47,14.98326545,0.0002685,69.9998,312.5182,270.6662,89.4189,-0.00010593,-1.357e-05,0.0,0 STARLINK-5809,1 55775U 23028AL  24050.83527274 -.00001357  00000-0 -10593-3 0  9992,2 55775  69.9998 312.5182 0002685 270.6662  89.4189 14.98326545 54367,6950.204,96.107,573.935,570.202,0.0
55775.0,STARLINK-5809,PAYLOAD,2024-02-19 23:15:03,14.98324821,0.0002625,70.0004,312.1818,264.5894,95.4966,-7.3997e-05,-9.76e-06,0.0,0 STARLINK-5809,1 55775U 23028AL  24050.96879281 -.00000976  00000-0 -73997-4 0  9998,2 55775  70.0004 312.1818 0002625 264.5894  95.4966 14.98324821 54380,6950.209,96.107,573.898,570.249,0.0
55775.0,STARLINK-5809,PAYLOAD,2024-02-20 10:27:59,14.98330252,0.0002781,69.9998,311.0036,268.8873,91.1967,-7.0843e-05,-9.38e-06,0.0,0 STARLINK-5809,1 55775U 23028AL  24051.43610982 -.00000938  00000-0 -70843-4 0  9997,2 55775  69.9998 311.0036 0002781 268.8873  91.1967 14.98330252 54453,6950.192,96.107,573.99,570.124,0.0
55775.0,STARLINK-5809,PAYLOAD,2024-02-20 18:28:39,14.98333509,0.0002753,69.9996,310.162,263.7703,96.3142,-3.3086e-05,-4.88e-06,0.0,0 STARLINK-5809,1 55775U 23028AL  24051.76990634 -.00000488  00000-0 -33086-4 0  9996,2 55775  69.9996 310.1620 0002753 263.7703  96.3142 14.98333509 54501,6950.182,96.107,573.96,570.134,0.0
55775.0,STARLINK-5809,PAYLOAD,2024-02-20 23:17:03,14.98333779,0.0002714,69.9997,309.657,260.7105,99.3747,-1.3554e-05,-2.55e-06,0.0,0 STARLINK-5809,1 55775U 23028AL  24051.97018509 -.00000255  00000-0 -13554-4 0  9991,2 55775  69.9997 309.6570 0002714 260.7105  99.3747 14.98333779 54535,6950.181,96.107,573.932,570.16,0.0
55775.0,STARLINK-5809,PAYLOAD,2024-02-21 13:42:16,14.98334718,0.0002763,69.9995,308.1418,268.7452,91.3391,-7.7158e-05,-1.014e-05,0.0,0 STARLINK-5809,1 55775U 23028AL  24052.57102444 -.00001014  00000-0 -77158-4 0  9994,2 55775  69.9995 308.1418 0002763 268.7452  91.3391 14.98334718 54626,6950.178,96.107,573.964,570.123,0.0
55775.0,STARLINK-5809,PAYLOAD,2024-02-21 20:06:49,14.98322808,0.0002906,69.9994,307.4688,268.6451,91.4376,5.4584e-05,5.58e-06,0.0,0 STARLINK-5809,1 55775U 23028AL  24052.83806934  .00000558  00000-0  54584-4 0  9996,2 55775  69.9994 307.4688 0002906 268.6451  91.4376 14.98322808 54668,6950.215,96.107,574.1,570.06,0.0
55775.0,STARLINK-5809,PAYLOAD,2024-02-21 21:42:57,14.98322702,0.0002851,69.9994,307.2987,272.1485,87.9348,5.7958e-05,5.98e-06,0.0,0 STARLINK-5809,1 55775U 23028AL  24052.90482984  .00000598  00000-0  57958-4 0  9991,2 55775  69.9994 307.2987 0002851 272.1485  87.9348 14.98322702 54677,6950.215,96.107,574.062,570.099,0.0
55775.0,STARLINK-5809,PAYLOAD,2024-02-22 10:32:01,14.98335114,0.0002788,69.9996,305.9524,272.8653,87.2187,-1.0555e-05,-2.19e-06,0.0,0 STARLINK-5809,1 55775U 23028AL  24053.43890425 -.00000219  00000-0 -10555-4 0  9997,2 55775  69.9996 305.9524 0002788 272.8653  87.2187 14.98335114 54758,6950.177,96.107,573.98,570.104,0.0
